STARLINK-1336_new
1 15557C 20025AC  21326.15711094 -.00021069  00000-0 -14116-2 0  3266
2 15557  53.0523 288.0425 0001802  63.3346   6.4822 15.06419297    18
STARLINK-1336_old
1 25557C 20025AC  21325.10190162 -.00001014  00000-0 -67955-4 0  3255
2 25557  53.0527 292.7795 0001780  62.8978  41.3028 15.06400079    18
